[{"OBJECT_NAME":"STARLINK-5588","OBJECT_ID":"2023-013AW","EPOCH":"2026-03-09T08:44:44.043360","MEAN_MOTION":15.02530469,"ECCENTRICITY":0.00014226,"INCLINATION":43.0042,"RA_OF_ASC_NODE":314.817,"ARG_OF_PERICENTER":263.0302,"MEAN_ANOMALY":97.0379,"EPHEMERIS_TYPE":0,"CLASSIFICATION_TYPE":"U","NORAD_CAT_ID":55375,"ELEMENT_SET_NO":999,"REV_AT_EPOCH":17151,"BSTAR":0.00028402073,"MEAN_MOTION_DOT":3.634e-5,"MEAN_MOTION_DDOT":0},{"OBJECT_NAME":"IRIDIUM 33 DEB","OBJECT_ID":"1997-051ABJ","EPOCH":"2026-03-07T11:02:11.153184","MEAN_MOTION":15.04355632,"ECCENTRICITY":0.00105712,"INCLINATION":86.348,"RA_OF_ASC_NODE":321.5871,"ARG_OF_PERICENTER":86.7515,"MEAN_ANOMALY":38.318,"EPHEMERIS_TYPE":0,"CLASSIFICATION_TYPE":"U","NORAD_CAT_ID":40996,"ELEMENT_SET_NO":999,"REV_AT_EPOCH":63758,"BSTAR":0.0045408492,"MEAN_MOTION_DOT":0.00063892,"MEAN_MOTION_DDOT":0}]
